{"type": "FeatureCollection", "features": [{"type": "Feature", "properties": {"norad_id": 28054, "name": "DMSP 5D-3 F16 (USA 172)", "group": "weather", "lat": -24.55522452332168, "lon": -175.76273649410103, "alt_km": 850.7924199306708, "timestamp": "2025-12-16T21:38:56.811515+00:00", "meta": {"OBJECT_NAME": "DMSP 5D-3 F16 (USA 172)", "OBJECT_ID": "2003-048A", "EPOCH": "2025-12-16T07:59:32.000064", "MEAN_MOTION": 14.14425587, "ECCENTRICITY": 0.00063834, "INCLINATION": 99.0044, "RA_OF_ASC_NODE": 7.8183, "ARG_OF_PERICENTER": 309.5153, "MEAN_ANOMALY": 239.4387, "EPHEMERIS_TYPE": 0, "CLASSIFICATION_TYPE": "U", "NORAD_CAT_ID": 28054, "ELEMENT_SET_NO": 999, "REV_AT_EPOCH": 14363, "BSTAR": 9.3501564e-05, "MEAN_MOTION_DOT": 1.33e-06, "MEAN_MOTION_DDOT": 0}, "tle": {"line1": "1 28054U 03048A   25350.33300926  .00000133  00000+0  93502-4 0  9994", "line2": "2 28054  99.0044   7.8183 0006383 309.5153 239.4387 14.14425587143634"}}, "geometry": {"type": "Point", "coordinates": [-175.76273649410103, -24.55522452332168]}}, {"type": "Feature", "properties": {"norad_id": 28912, "name": "METEOSAT-9 (MSG-2)", "group": "weather", "lat": 5.797957340155582, "lon": 95.91180905987227, "alt_km": 35796.00335959775, "timestamp": "2025-12-16T21:38:56.811564+00:00", "meta": {"OBJECT_NAME": "METEOSAT-9 (MSG-2)", "OBJECT_ID": "2005-049B", "EPOCH": "2025-12-15T20:27:10.626048", "MEAN_MOTION": 1.00278296, "ECCENTRICITY": 0.00034199, "INCLINATION": 8.9463, "RA_OF_ASC_NODE": 55.948, "ARG_OF_PERICENTER": 190.7144, "MEAN_ANOMALY": 190.6182, "EPHEMERIS_TYPE": 0, "CLASSIFICATION_TYPE": "U", "NORAD_CAT_ID": 28912, "ELEMENT_SET_NO": 999, "REV_AT_EPOCH": 516, "BSTAR": 0, "MEAN_MOTION_DOT": 1.39e-06, "MEAN_MOTION_DDOT": 0}, "tle": {"line1": "1 28912U 05049B   25349.85220632  .00000139  00000+0  00000+0 0  9992", "line2": "2 28912   8.9463  55.9480 0003419 190.7144 190.6182  1.00278296  5162"}}, "geometry": {"type": "Point", "coordinates": [95.91180905987227, 5.797957340155582]}}, {"type": "Feature", "properties": {"norad_id": 29522, "name": "DMSP 5D-3 F17 (USA 191)", "group": "weather", "lat": 27.105972246859302, "lon": -179.27968864029938, "alt_km": 837.9758490648173, "timestamp": "2025-12-16T21:38:56.811581+00:00", "meta": {"OBJECT_NAME": "DMSP 5D-3 F17 (USA 191)", "OBJECT_ID": "2006-050A", "EPOCH": "2025-12-16T07:21:10.698048", "MEAN_MOTION": 14.14921197, "ECCENTRICITY": 0.00095466, "INCLINATION": 98.7392, "RA_OF_ASC_NODE": 355.6213, "ARG_OF_PERICENTER": 213.9806, "MEAN_ANOMALY": 146.0757, "EPHEMERIS_TYPE": 0, "CLASSIFICATION_TYPE": "U", "NORAD_CAT_ID": 29522, "ELEMENT_SET_NO": 999, "REV_AT_EPOCH": 98655, "BSTAR": 0.00010753164, "MEAN_MOTION_DOT": 1.65e-06, "MEAN_MOTION_DDOT": 0}, "tle": {"line1": "1 29522U 06050A   25350.30637382  .00000165  00000+0  10753-3 0  9998", "line2": "2 29522  98.7392 355.6213 0009546 213.9806 146.0757 14.14921197986550"}}, "geometry": {"type": "Point", "coordinates": [-179.27968864029938, 27.105972246859302]}}, {"type": "Feature", "properties": {"norad_id": 32958, "name": "FENGYUN 3A", "group": "weather", "lat": -63.406387049565446, "lon": -51.91360288145526, "alt_km": 828.5617559789835, "timestamp": "2025-12-16T21:38:56.811595+00:00", "meta": {"OBJECT_NAME": "FENGYUN 3A", "OBJECT_ID": "2008-026A", "EPOCH": "2025-12-16T08:25:11.951328", "MEAN_MOTION": 14.19515786, "ECCENTRICITY": 0.00077716, "INCLINATION": 98.67, "RA_OF_ASC_NODE": 289.8016, "ARG_OF_PERICENTER": 299.003, "MEAN_ANOMALY": 61.0367, "EPHEMERIS_TYPE": 0, "CLASSIFICATION_TYPE": "U", "NORAD_CAT_ID": 32958, "ELEMENT_SET_NO": 999, "REV_AT_EPOCH": 90946, "BSTAR": 6.3998465e-05, "MEAN_MOTION_DOT": 9.2e-07, "MEAN_MOTION_DDOT": 0}, "tle": {"line1": "1 32958U 08026A   25350.35083277  .00000092  00000+0  63998-4 0  9992", "line2": "2 32958  98.6700 289.8016 0007771 299.0030  61.0367 14.19515786909466"}}, "geometry": {"type": "Point", "coordinates": [-51.91360288145526, -63.406387049565446]}}, {"type": "Feature", "properties": {"norad_id": 35491, "name": "GOES 14", "group": "weather", "lat": -0.6744539078117328, "lon": -61.87228169122663, "alt_km": 35833.54933983091, "timestamp": "2025-12-16T21:38:56.811610+00:00", "meta": {"OBJECT_NAME": "GOES 14", "OBJECT_ID": "2009-033A", "EPOCH": "2025-12-16T08:46:52.654080", "MEAN_MOTION": 1.00096598, "ECCENTRICITY": 5.723e-05, "INCLINATION": 1.212, "RA_OF_ASC_NODE": 85.3619, "ARG_OF_PERICENTER": 170.3744, "MEAN_ANOMALY": 209.1948, "EPHEMERIS_TYPE": 0, "CLASSIFICATION_TYPE": "U", "NORAD_CAT_ID": 35491, "ELEMENT_SET_NO": 999, "REV_AT_EPOCH": 476, "BSTAR": 0, "MEAN_MOTION_DOT": 5e-08, "MEAN_MOTION_DDOT": 0}, "tle": {"line1": "1 35491U 09033A   25350.36588720  .00000005  00000+0  00000+0 0  9994", "line2": "2 35491   1.2120  85.3619 0000572 170.3744 209.1948  1.00096598  4760"}}, "geometry": {"type": "Point", "coordinates": [-61.87228169122663, -0.6744539078117328]}}, {"type": "Feature", "properties": {"norad_id": 35951, "name": "DMSP 5D-3 F18 (USA 210)", "group": "weather", "lat": 17.344626181587003, "lon": -35.517918364538644, "alt_km": 836.3070139473075, "timestamp": "2025-12-16T21:38:56.811622+00:00", "meta": {"OBJECT_NAME": "DMSP 5D-3 F18 (USA 210)", "OBJECT_ID": "2009-057A", "EPOCH": "2025-12-16T04:35:35.430720", "MEAN_MOTION": 14.14771368, "ECCENTRICITY": 0.00119892, "INCLINATION": 98.8837, "RA_OF_ASC_NODE": 326.5749, "ARG_OF_PERICENTER": 53.6848, "MEAN_ANOMALY": 306.543, "EPHEMERIS_TYPE": 0, "CLASSIFICATION_TYPE": "U", "NORAD_CAT_ID": 35951, "ELEMENT_SET_NO": 999, "REV_AT_EPOCH": 83371, "BSTAR": 0.00016664226, "MEAN_MOTION_DOT": 2.77e-06, "MEAN_MOTION_DDOT": 0}, "tle": {"line1": "1 35951U 09057A   25350.19138230  .00000277  00000+0  16664-3 0  9997", "line2": "2 35951  98.8837 326.5749 0011989  53.6848 306.5430 14.14771368833711"}}, "geometry": {"type": "Point", "coordinates": [-35.517918364538644, 17.344626181587003]}}, {"type": "Feature", "properties": {"norad_id": 36411, "name": "EWS-G2 (GOES 15)", "group": "weather", "lat": 0.37783802502593494, "lon": 111.85890704312682, "alt_km": 35806.71020746273, "timestamp": "2025-12-16T21:38:56.811636+00:00", "meta": {"OBJECT_NAME": "EWS-G2 (GOES 15)", "OBJECT_ID": "2010-008A", "EPOCH": "2025-12-15T20:40:38.740800", "MEAN_MOTION": 1.00270508, "ECCENTRICITY": 0.00055584, "INCLINATION": 0.8214, "RA_OF_ASC_NODE": 86.0762, "ARG_OF_PERICENTER": 175.7709, "MEAN_ANOMALY": 194.4603, "EPHEMERIS_TYPE": 0, "CLASSIFICATION_TYPE": "U", "NORAD_CAT_ID": 36411, "ELEMENT_SET_NO": 999, "REV_AT_EPOCH": 5780, "BSTAR": 0, "MEAN_MOTION_DOT": 6e-07, "MEAN_MOTION_DDOT": 0}, "tle": {"line1": "1 36411U 10008A   25349.86155950  .00000060  00000+0  00000+0 0  9990", "line2": "2 36411   0.8214  86.0762 0005558 175.7709 194.4603  1.00270508 57800"}}, "geometry": {"type": "Point", "coordinates": [111.85890704312682, 0.37783802502593494]}}, {"type": "Feature", "properties": {"norad_id": 36744, "name": "COMS 1", "group": "weather", "lat": 4.27042080809918, "lon": 178.70808256678572, "alt_km": 35785.86393368458, "timestamp": "2025-12-16T21:38:56.811649+00:00", "meta": {"OBJECT_NAME": "COMS 1", "OBJECT_ID": "2010-032A", "EPOCH": "2025-12-15T13:59:49.717248", "MEAN_MOTION": 1.00271913, "ECCENTRICITY": 8.134e-05, "INCLINATION": 4.3476, "RA_OF_ASC_NODE": 77.9671, "ARG_OF_PERICENTER": 193.8202, "MEAN_ANOMALY": 150.8255, "EPHEMERIS_TYPE": 0, "CLASSIFICATION_TYPE": "U", "NORAD_CAT_ID": 36744, "ELEMENT_SET_NO": 999, "REV_AT_EPOCH": 4924, "BSTAR": 0, "MEAN_MOTION_DOT": -3.25e-06, "MEAN_MOTION_DDOT": 0}, "tle": {"line1": "1 36744U 10032A   25349.58321432 -.00000325  00000+0  00000+0 0  9990", "line2": "2 36744   4.3476  77.9671 0000813 193.8202 150.8255  1.00271913 49243"}}, "geometry": {"type": "Point", "coordinates": [178.70808256678572, 4.27042080809918]}}, {"type": "Feature", "properties": {"norad_id": 37214, "name": "FENGYUN 3B", "group": "weather", "lat": -17.274816844703313, "lon": 33.730746339498054, "alt_km": 832.0804226697419, "timestamp": "2025-12-16T21:38:56.811661+00:00", "meta": {"OBJECT_NAME": "FENGYUN 3B", "OBJECT_ID": "2010-059A", "EPOCH": "2025-12-16T08:25:57.578304", "MEAN_MOTION": 14.14789529, "ECCENTRICITY": 0.00219148, "INCLINATION": 98.991, "RA_OF_ASC_NODE": 30.3541, "ARG_OF_PERICENTER": 347.5763, "MEAN_ANOMALY": 71.8416, "EPHEMERIS_TYPE": 0, "CLASSIFICATION_TYPE": "U", "NORAD_CAT_ID": 37214, "ELEMENT_SET_NO": 999, "REV_AT_EPOCH": 78157, "BSTAR": -4.7157296e-05, "MEAN_MOTION_DOT": -1.37e-06, "MEAN_MOTION_DDOT": 0}, "tle": {"line1": "1 37214U 10059A   25350.35136086 -.00000137  00000+0 -47157-4 0  9999", "line2": "2 37214  98.9910  30.3541 0021914 347.5763  71.8416 14.14789529781578"}}, "geometry": {"type": "Point", "coordinates": [33.730746339498054, -17.274816844703313]}}, {"type": "Feature", "properties": {"norad_id": 37849, "name": "SUOMI NPP", "group": "weather", "lat": -71.90034475960717, "lon": 79.99457426934285, "alt_km": 835.5940150243814, "timestamp": "2025-12-16T21:38:56.811673+00:00", "meta": {"OBJECT_NAME": "SUOMI NPP", "OBJECT_ID": "2011-061A", "EPOCH": "2025-12-16T08:36:51.320448", "MEAN_MOTION": 14.19515267, "ECCENTRICITY": 0.00023522, "INCLINATION": 98.7777, "RA_OF_ASC_NODE": 287.6679, "ARG_OF_PERICENTER": 113.7779, "MEAN_ANOMALY": 246.3644, "EPHEMERIS_TYPE": 0, "CLASSIFICATION_TYPE": "U", "NORAD_CAT_ID": 37849, "ELEMENT_SET_NO": 999, "REV_AT_EPOCH": 73250, "BSTAR": 6.0452682e-05, "MEAN_MOTION_DOT": 8.3e-07, "MEAN_MOTION_DDOT": 0}, "tle": {"line1": "1 37849U 11061A   25350.35892732  .00000083  00000+0  60453-4 0  9996", "line2": "2 37849  98.7777 287.6679 0002352 113.7779 246.3644 14.19515267732507"}}, "geometry": {"type": "Point", "coordinates": [79.99457426934285, -71.90034475960717]}}]}